start=new Date('2022-02-07T00:00:00.000Z').valueOf();
sats=[{"RA_OF_ASC_NODE":"283.5252","RCS_SIZE":"LARGE","OBJECT_NAME":"STARLINK-1392","SITE":"AFETR","MEAN_MOTION_DOT":"-0.00001768","FILE":"3293822","ECCENTRICITY":"0.00017530","COUNTRY_CODE":"US","TLE_LINE1":"1 45677U 20035W   22037.90210974 -.00001768  00000-0 -99854-4 0  9998","REV_AT_EPOCH":"9388","MEAN_MOTION_DDOT":"0.0000000000000","ARG_OF_PERICENTER":"52.2548","PERIOD":"95.593","OBJECT_TYPE":"PAYLOAD","TLE_LINE2":"2 45677  53.0523 283.5252 0001753  52.2548 307.8599 15.06379243 93887","EPOCH":"2022-02-06T21:39:02.281536","EPHEMERIS_TYPE":"0","APOAPSIS":"548.491","MEAN_MOTION":"15.06379243","LAUNCH_DATE":"2020-06-04","BSTAR":"-0.00009985400000","INCLINATION":"53.0523","DECAY_DATE":null,"OBJECT_ID":"2020-035W","CENTER_NAME":"EARTH","MEAN_ELEMENT_THEORY":"SGP4","ELEMENT_SET_NO":"999","MEAN_ANOMALY":"307.8599","TIME_SYSTEM":"UTC","PERIAPSIS":"546.063","CLASSIFICATION_TYPE":"U","GP_ID":"195440534","REF_FRAME":"TEME","SEMIMAJOR_AXIS":"6925.412","NORAD_CAT_ID":"45677"},{"ARG_OF_PERICENTER":"62.6633","PERIOD":"95.593","REV_AT_EPOCH":"9400","MEAN_MOTION_DDOT":"0.0000000000000","TLE_LINE1":"1 45678U 20035X   22037.89566078 -.00004586  00000-0 -28936-3 0  9999","COUNTRY_CODE":"US","APOAPSIS":"548.343","EPOCH":"2022-02-06T21:29:45.091392","TLE_LINE2":"2 45678  53.0527 273.5364 0001542  62.6633 297.4513 15.06379879 94001","EPHEMERIS_TYPE":"0","OBJECT_TYPE":"PAYLOAD","FILE":"3293822","SITE":"AFETR","OBJECT_NAME":"STARLINK-1393","MEAN_MOTION_DOT":"-0.00004586","RCS_SIZE":"LARGE","RA_OF_ASC_NODE":"273.5364","ECCENTRICITY":"0.00015420","PERIAPSIS":"546.207","TIME_SYSTEM":"UTC","MEAN_ANOMALY":"297.4513","ELEMENT_SET_NO":"999","SEMIMAJOR_AXIS":"6925.410","NORAD_CAT_ID":"45678","CLASSIFICATION_TYPE":"U","GP_ID":"195441286","REF_FRAME":"TEME","DECAY_DATE":null,"MEAN_MOTION":"15.06379879","INCLINATION":"53.0527","LAUNCH_DATE":"2020-06-04","BSTAR":"-0.00028936000000","CENTER_NAME":"EARTH","OBJECT_ID":"2020-035X","MEAN_ELEMENT_THEORY":"SGP4"},{"MEAN_MOTION_DDOT":"0.0000000000000","REV_AT_EPOCH":"9402","TLE_LINE1":"1 45679U 20035Y   22037.89934491 -.00002109  00000-0 -12277-3 0  9998","COUNTRY_CODE":"US","PERIOD":"95.593","ARG_OF_PERICENTER":"81.6092","OBJECT_TYPE":"PAYLOAD","APOAPSIS":"548.286","EPHEMERIS_TYPE":"0","EPOCH":"2022-02-06T21:35:03.400224","TLE_LINE2":"2 45679  53.0531 273.5324 0001470  81.6092 278.5063 15.06382245 94026","RCS_SIZE":"LARGE","RA_OF_ASC_NODE":"273.5324","FILE":"3293822","SITE":"AFETR","OBJECT_NAME":"STARLINK-1394","MEAN_MOTION_DOT":"-0.00002109","ECCENTRICITY":"0.00014700","MEAN_ANOMALY":"278.5063","ELEMENT_SET_NO":"999","PERIAPSIS":"546.250","TIME_SYSTEM":"UTC","NORAD_CAT_ID":"45679","SEMIMAJOR_AXIS":"6925.403","GP_ID":"195442036","REF_FRAME":"TEME","CLASSIFICATION_TYPE":"U","DECAY_DATE":null,"LAUNCH_DATE":"2020-06-04","INCLINATION":"53.0531","BSTAR":"-0.00012277000000","MEAN_MOTION":"15.06382245","MEAN_ELEMENT_THEORY":"SGP4","OBJECT_ID":"2020-035Y","CENTER_NAME":"EARTH"},{"COUNTRY_CODE":"US","TLE_LINE1":"1 45680U 20035Z   22037.90672479 -.00002326  00000-0 -13735-3 0  9998","MEAN_MOTION_DDOT":"0.0000000000000","REV_AT_EPOCH":"9401","ARG_OF_PERICENTER":"68.4224","PERIOD":"95.593","OBJECT_TYPE":"PAYLOAD","EPHEMERIS_TYPE":"0","EPOCH":"2022-02-06T21:45:41.021856","TLE_LINE2":"2 45680  53.0548 273.5013 0001585  68.4224 291.6934 15.06382245 94010","APOAPSIS":"548.366","RA_OF_ASC_NODE":"273.5013","RCS_SIZE":"LARGE","SITE":"AFETR","OBJECT_NAME":"STARLINK-1395","MEAN_MOTION_DOT":"-0.00002326","FILE":"3293822","ECCENTRICITY":"0.00015850","ELEMENT_SET_NO":"999","MEAN_ANOMALY":"291.6934","PERIAPSIS":"546.170","TIME_SYSTEM":"UTC","GP_ID":"195440784","REF_FRAME":"TEME","CLASSIFICATION_TYPE":"U","NORAD_CAT_ID":"45680","SEMIMAJOR_AXIS":"6925.403","INCLINATION":"53.0548","LAUNCH_DATE":"2020-06-04","BSTAR":"-0.00013735000000","MEAN_MOTION":"15.06382245","DECAY_DATE":null,"CENTER_NAME":"EARTH","OBJECT_ID":"2020-035Z","MEAN_ELEMENT_THEORY":"SGP4"},{"ECCENTRICITY":"0.00016110","FILE":"3293822","SITE":"AFETR","MEAN_MOTION_DOT":"-0.00002498","OBJECT_NAME":"STARLINK-1396","RCS_SIZE":"LARGE","RA_OF_ASC_NODE":"273.4988","APOAPSIS":"548.381","EPHEMERIS_TYPE":"0","TLE_LINE2":"2 45681  53.0533 273.4988 0001611  70.7360 289.3803 15.06383145 94022","EPOCH":"2022-02-06T21:40:22.427040","OBJECT_TYPE":"PAYLOAD","PERIOD":"95.593","ARG_OF_PERICENTER":"70.7360","MEAN_MOTION_DDOT":"0.0000000000000","REV_AT_EPOCH":"9402","TLE_LINE1":"1 45681U 20035AA  22037.90303735 -.00002498  00000-0 -14894-3 0  9992","COUNTRY_CODE":"US","CENTER_NAME":"EARTH","OBJECT_ID":"2020-035AA","MEAN_ELEMENT_THEORY":"SGP4","DECAY_DATE":null,"INCLINATION":"53.0533","LAUNCH_DATE":"2020-06-04","BSTAR":"-0.00014894000000","MEAN_MOTION":"15.06383145","NORAD_CAT_ID":"45681","SEMIMAJOR_AXIS":"6925.400","GP_ID":"195441034","REF_FRAME":"TEME","CLASSIFICATION_TYPE":"U","PERIAPSIS":"546.150","TIME_SYSTEM":"UTC","MEAN_ANOMALY":"289.3803","ELEMENT_SET_NO":"999"},{"MEAN_MOTION":"15.06383930","LAUNCH_DATE":"2020-06-04","BSTAR":"-0.00015396000000","INCLINATION":"53.0532","DECAY_DATE":null,"OBJECT_ID":"2020-035AB","CENTER_NAME":"EARTH","MEAN_ELEMENT_THEORY":"SGP4","ELEMENT_SET_NO":"999","MEAN_ANOMALY":"302.6509","PERIAPSIS":"546.102","TIME_SYSTEM":"UTC","CLASSIFICATION_TYPE":"U","REF_FRAME":"TEME","GP_ID":"195441786","SEMIMAJOR_AXIS":"6925.398","NORAD_CAT_ID":"45682","RA_OF_ASC_NODE":"273.4727","RCS_SIZE":"LARGE","SITE":"AFETR","MEAN_MOTION_DOT":"-0.00002573","OBJECT_NAME":"STARLINK-1397","FILE":"3293822","ECCENTRICITY":"0.00016760","COUNTRY_CODE":"US","TLE_LINE1":"1 45682U 20035AB  22037.91041137 -.00002573  00000-0 -15396-3 0  9991","REV_AT_EPOCH":"9401","MEAN_MOTION_DDOT":"0.0000000000000","PERIOD":"95.593","ARG_OF_PERICENTER":"57.4642","OBJECT_TYPE":"PAYLOAD","TLE_LINE2":"2 45682  53.0532 273.4727 0001676  57.4642 302.6509 15.06383930 94012","EPOCH":"2022-02-06T21:50:59.542368","EPHEMERIS_TYPE":"0","APOAPSIS":"548.424"},{"ECCENTRICITY":"0.00015540","RCS_SIZE":"LARGE","RA_OF_ASC_NODE":"273.5691","FILE":"3293822","SITE":"AFETR","OBJECT_NAME":"STARLINK-1399","MEAN_MOTION_DOT":"-0.00000930","OBJECT_TYPE":"PAYLOAD","APOAPSIS":"548.348","TLE_LINE2":"2 45683  53.0551 273.5691 0001554  70.3976 289.7180 15.06380929 94020","EPOCH":"2022-02-06T21:24:26.892288","EPHEMERIS_TYPE":"0","REV_AT_EPOCH":"9402","MEAN_MOTION_DDOT":"0.0000000000000","TLE_LINE1":"1 45683U 20035AC  22037.89197792 -.00000930  00000-0 -43564-4 0  9992","COUNTRY_CODE":"US","PERIOD":"95.593","ARG_OF_PERICENTER":"70.3976","OBJECT_ID":"2020-035AC","CENTER_NAME":"EARTH","MEAN_ELEMENT_THEORY":"SGP4","DECAY_DATE":null,"MEAN_MOTION":"15.06380929","LAUNCH_DATE":"2020-06-04","INCLINATION":"53.0551","BSTAR":"-0.00004356400000","SEMIMAJOR_AXIS":"6925.407","NORAD_CAT_ID":"45683","CLASSIFICATION_TYPE":"U","GP_ID":"195441537","REF_FRAME":"TEME","MEAN_ANOMALY":"289.7180","ELEMENT_SET_NO":"999","TIME_SYSTEM":"UTC","PERIAPSIS":"546.196"},{"GP_ID":"195440285","REF_FRAME":"TEME","CLASSIFICATION_TYPE":"U","NORAD_CAT_ID":"45684","SEMIMAJOR_AXIS":"6925.393","PERIAPSIS":"546.054","TIME_SYSTEM":"UTC","ELEMENT_SET_NO":"999","MEAN_ANOMALY":"287.0577","CENTER_NAME":"EARTH","MEAN_ELEMENT_THEORY":"SGP4","OBJECT_ID":"2020-035AD","BSTAR":"-0.00013111000000","LAUNCH_DATE":"2020-06-04","INCLINATION":"53.0557","MEAN_MOTION":"15.06385576","DECAY_DATE":null,"EPHEMERIS_TYPE":"0","TLE_LINE2":"2 45684  53.0557 273.3623 0001738  73.0602 287.0577 15.06385576 94035","EPOCH":"2022-02-06T22:28:08.410944","APOAPSIS":"548.461","OBJECT_TYPE":"PAYLOAD","ARG_OF_PERICENTER":"73.0602","PERIOD":"95.593","TLE_LINE1":"1 45684U 20035AD  22037.93620846 -.00002233  00000-0 -13111-3 0  9991","COUNTRY_CODE":"US","MEAN_MOTION_DDOT":"0.0000000000000","REV_AT_EPOCH":"9403","ECCENTRICITY":"0.00017380","SITE":"AFETR","MEAN_MOTION_DOT":"-0.00002233","OBJECT_NAME":"STARLINK-1401","FILE":"3293822","RA_OF_ASC_NODE":"273.3623","RCS_SIZE":"LARGE"},{"SEMIMAJOR_AXIS":"6925.420","NORAD_CAT_ID":"45685","CLASSIFICATION_TYPE":"U","REF_FRAME":"TEME","GP_ID":"195440535","MEAN_ANOMALY":"301.8562","ELEMENT_SET_NO":"999","TIME_SYSTEM":"UTC","PERIAPSIS":"546.088","OBJECT_ID":"2020-035AE","MEAN_ELEMENT_THEORY":"SGP4","CENTER_NAME":"EARTH","DECAY_DATE":null,"MEAN_MOTION":"15.06376839","INCLINATION":"53.0537","LAUNCH_DATE":"2020-06-04","BSTAR":"-0.00025393000000","OBJECT_TYPE":"PAYLOAD","APOAPSIS":"548.481","EPOCH":"2022-02-06T22:22:49.390176","TLE_LINE2":"2 45685  53.0537 273.3911 0001728  58.2595 301.8562 15.06376839 94030","EPHEMERIS_TYPE":"0","REV_AT_EPOCH":"9403","MEAN_MOTION_DDOT":"0.0000000000000","TLE_LINE1":"1 45685U 20035AE  22037.93251609 -.00004059  00000-0 -25393-3 0  9992","COUNTRY_CODE":"US","ARG_OF_PERICENTER":"58.2595","PERIOD":"95.594","ECCENTRICITY":"0.00017280","RCS_SIZE":"LARGE","RA_OF_ASC_NODE":"273.3911","FILE":"3293822","SITE":"AFETR","OBJECT_NAME":"STARLINK-1402","MEAN_MOTION_DOT":"-0.00004059"},{"OBJECT_TYPE":"PAYLOAD","APOAPSIS":"548.425","EPHEMERIS_TYPE":"0","EPOCH":"2022-02-06T22:12:13.159584","TLE_LINE2":"2 45686  53.0542 273.4109 0001687  60.0980 300.0176 15.06385779 94035","MEAN_MOTION_DDOT":"0.0000000000000","REV_AT_EPOCH":"9403","TLE_LINE1":"1 45686U 20035AF  22037.92515231 -.00001472  00000-0 -79958-4 0  9999","COUNTRY_CODE":"US","PERIOD":"95.593","ARG_OF_PERICENTER":"60.0980","ECCENTRICITY":"0.00016870","RCS_SIZE":"LARGE","RA_OF_ASC_NODE":"273.4109","FILE":"3293822","MEAN_MOTION_DOT":"-0.00001472","SITE":"AFETR","OBJECT_NAME":"STARLINK-1404","NORAD_CAT_ID":"45686","SEMIMAJOR_AXIS":"6925.392","GP_ID":"195441287","REF_FRAME":"TEME","CLASSIFICATION_TYPE":"U","MEAN_ANOMALY":"300.0176","ELEMENT_SET_NO":"999","PERIAPSIS":"546.089","TIME_SYSTEM":"UTC","OBJECT_ID":"2020-035AF","MEAN_ELEMENT_THEORY":"SGP4","CENTER_NAME":"EARTH","DECAY_DATE":null,"LAUNCH_DATE":"2020-06-04","INCLINATION":"53.0542","BSTAR":"-0.00007995800000","MEAN_MOTION":"15.06385779"}];
